[
  {
    "OBJECT_NAME": "STARLINK-11458 [DTC]",
    "OBJECT_ID": "2025-031B",
    "EPOCH": "2025-06-21T14:47:56.109696",
    "MEAN_MOTION": 15.70866917,
    "ECCENTRICITY": 0.0001178,
    "INCLINATION": 43.0006,
    "RA_OF_ASC_NODE": 135.0131,
    "ARG_OF_PERICENTER": 290.8346,
    "MEAN_ANOMALY": 69.2395,
    "EPHEMERIS_TYPE": 0,
    "CLASSIFICATION_TYPE": "U",
    "NORAD_CAT_ID": 62982,
    "ELEMENT_SET_NO": 999,
    "REV_AT_EPOCH": 2168,
    "BSTAR": 0.0013526,
    "MEAN_MOTION_DOT": 0.00177053,
    "MEAN_MOTION_DDOT": 0
  },
  {
    "OBJECT_NAME": "STARLINK-11417 [DTC]",
    "OBJECT_ID": "2025-031C",
    "EPOCH": "2025-06-21T14:09:53.243712",
    "MEAN_MOTION": 15.70881117,
    "ECCENTRICITY": 0.0002095,
    "INCLINATION": 42.9984,
    "RA_OF_ASC_NODE": 135.6936,
    "ARG_OF_PERICENTER": 269.3195,
    "MEAN_ANOMALY": 90.7432,
    "EPHEMERIS_TYPE": 0,
    "CLASSIFICATION_TYPE": "U",
    "NORAD_CAT_ID": 62983,
    "ELEMENT_SET_NO": 999,
    "REV_AT_EPOCH": 2167,
    "BSTAR": 0.0010954,
    "MEAN_MOTION_DOT": 0.00142797,
    "MEAN_MOTION_DDOT": 0
  },
  {
    "OBJECT_NAME": "STARLINK-11544 [DTC]",
    "OBJECT_ID": "2025-031D",
    "EPOCH": "2025-06-21T14:40:17.368032",
    "MEAN_MOTION": 15.70876843,
    "ECCENTRICITY": 9.44e-05,
    "INCLINATION": 43.0012,
    "RA_OF_ASC_NODE": 134.9685,
    "ARG_OF_PERICENTER": 282.2201,
    "MEAN_ANOMALY": 77.8561,
    "EPHEMERIS_TYPE": 0,
    "CLASSIFICATION_TYPE": "U",
    "NORAD_CAT_ID": 62984,
    "ELEMENT_SET_NO": 999,
    "REV_AT_EPOCH": 2162,
    "BSTAR": 0.0012637,
    "MEAN_MOTION_DOT": 0.00165218,
    "MEAN_MOTION_DDOT": 0
  },
  {
    "OBJECT_NAME": "STARLINK-11582 [DTC]",
    "OBJECT_ID": "2025-031E",
    "EPOCH": "2025-06-21T05:53:51.173952",
    "MEAN_MOTION": 15.7091308,
    "ECCENTRICITY": 0.0003304,
    "INCLINATION": 42.9988,
    "RA_OF_ASC_NODE": 137.3952,
    "ARG_OF_PERICENTER": 255.9082,
    "MEAN_ANOMALY": 104.1418,
    "EPHEMERIS_TYPE": 0,
    "CLASSIFICATION_TYPE": "U",
    "NORAD_CAT_ID": 62985,
    "ELEMENT_SET_NO": 999,
    "REV_AT_EPOCH": 2162,
    "BSTAR": 0.0011401,
    "MEAN_MOTION_DOT": 0.00148973,
    "MEAN_MOTION_DDOT": 0
  },
  {
    "OBJECT_NAME": "STARLINK-11571 [DTC]",
    "OBJECT_ID": "2025-031F",
    "EPOCH": "2025-06-21T14:17:21.744384",
    "MEAN_MOTION": 15.7088552,
    "ECCENTRICITY": 0.0001119,
    "INCLINATION": 42.9994,
    "RA_OF_ASC_NODE": 134.8384,
    "ARG_OF_PERICENTER": 29.3506,
    "MEAN_ANOMALY": 330.7425,
    "EPHEMERIS_TYPE": 0,
    "CLASSIFICATION_TYPE": "U",
    "NORAD_CAT_ID": 62986,
    "ELEMENT_SET_NO": 999,
    "REV_AT_EPOCH": 2168,
    "BSTAR": 0.0017959,
    "MEAN_MOTION_DOT": 0.00237138,
    "MEAN_MOTION_DDOT": 0
  },
  {
    "OBJECT_NAME": "STARLINK-11539 [DTC]",
    "OBJECT_ID": "2025-031G",
    "EPOCH": "2025-06-21T14:55:35.042304",
    "MEAN_MOTION": 15.70869121,
    "ECCENTRICITY": 5.81e-05,
    "INCLINATION": 42.9978,
    "RA_OF_ASC_NODE": 135.0521,
    "ARG_OF_PERICENTER": 298.1986,
    "MEAN_ANOMALY": 61.8822,
    "EPHEMERIS_TYPE": 0,
    "CLASSIFICATION_TYPE": "U",
    "NORAD_CAT_ID": 62987,
    "ELEMENT_SET_NO": 999,
    "REV_AT_EPOCH": 2168,
    "BSTAR": 0.0012811,
    "MEAN_MOTION_DOT": 0.00167493,
    "MEAN_MOTION_DDOT": 0
  },
  {
    "OBJECT_NAME": "STARLINK-11542 [DTC]",
    "OBJECT_ID": "2025-031H",
    "EPOCH": "2025-06-21T08:00:01.999872",
    "MEAN_MOTION": 15.70816438,
    "ECCENTRICITY": 0.0001497,
    "INCLINATION": 43,
    "RA_OF_ASC_NODE": 136.5692,
    "ARG_OF_PERICENTER": 271.4315,
    "MEAN_ANOMALY": 345.0596,
    "EPHEMERIS_TYPE": 0,
    "CLASSIFICATION_TYPE": "U",
    "NORAD_CAT_ID": 62988,
    "ELEMENT_SET_NO": 999,
    "REV_AT_EPOCH": 584,
    "BSTAR": -0.00033014,
    "MEAN_MOTION_DOT": -0.00042552,
    "MEAN_MOTION_DDOT": 0
  },
  {
    "OBJECT_NAME": "STARLINK-11573 [DTC]",
    "OBJECT_ID": "2025-031J",
    "EPOCH": "2025-06-21T07:40:42.056544",
    "MEAN_MOTION": 15.70844126,
    "ECCENTRICITY": 0.0003252,
    "INCLINATION": 42.9991,
    "RA_OF_ASC_NODE": 137.0969,
    "ARG_OF_PERICENTER": 243.0926,
    "MEAN_ANOMALY": 116.961,
    "EPHEMERIS_TYPE": 0,
    "CLASSIFICATION_TYPE": "U",
    "NORAD_CAT_ID": 62989,
    "ELEMENT_SET_NO": 999,
    "REV_AT_EPOCH": 2160,
    "BSTAR": 0.0011303,
    "MEAN_MOTION_DOT": 0.00147228,
    "MEAN_MOTION_DDOT": 0
  },
  {
    "OBJECT_NAME": "STARLINK-11572 [DTC]",
    "OBJECT_ID": "2025-031K",
    "EPOCH": "2025-06-21T20:47:49.963200",
    "MEAN_MOTION": 15.70870143,
    "ECCENTRICITY": 0.0002141,
    "INCLINATION": 43.0009,
    "RA_OF_ASC_NODE": 133.4404,
    "ARG_OF_PERICENTER": 259.2075,
    "MEAN_ANOMALY": 100.8552,
    "EPHEMERIS_TYPE": 0,
    "CLASSIFICATION_TYPE": "U",
    "NORAD_CAT_ID": 62990,
    "ELEMENT_SET_NO": 999,
    "REV_AT_EPOCH": 2172,
    "BSTAR": 0.0013355,
    "MEAN_MOTION_DOT": 0.00174791,
    "MEAN_MOTION_DDOT": 0
  },
  {
    "OBJECT_NAME": "STARLINK-11583 [DTC]",
    "OBJECT_ID": "2025-031L",
    "EPOCH": "2025-06-21T06:16:47.800704",
    "MEAN_MOTION": 15.70821135,
    "ECCENTRICITY": 0.0001547,
    "INCLINATION": 42.9995,
    "RA_OF_ASC_NODE": 137.521,
    "ARG_OF_PERICENTER": 266.5875,
    "MEAN_ANOMALY": 93.4815,
    "EPHEMERIS_TYPE": 0,
    "CLASSIFICATION_TYPE": "U",
    "NORAD_CAT_ID": 62991,
    "ELEMENT_SET_NO": 999,
    "REV_AT_EPOCH": 2163,
    "BSTAR": 0.0013866,
    "MEAN_MOTION_DOT": 0.0018126,
    "MEAN_MOTION_DDOT": 0
  },
  {
    "OBJECT_NAME": "STARLINK-11570 [DTC]",
    "OBJECT_ID": "2025-031M",
    "EPOCH": "2025-06-21T06:24:25.800192",
    "MEAN_MOTION": 15.70953424,
    "ECCENTRICITY": 0.0004176,
    "INCLINATION": 42.9993,
    "RA_OF_ASC_NODE": 137.5632,
    "ARG_OF_PERICENTER": 249.6789,
    "MEAN_ANOMALY": 110.363,
    "EPHEMERIS_TYPE": 0,
    "CLASSIFICATION_TYPE": "U",
    "NORAD_CAT_ID": 62992,
    "ELEMENT_SET_NO": 999,
    "REV_AT_EPOCH": 2161,
    "BSTAR": 0.0016649,
    "MEAN_MOTION_DOT": 0.00220032,
    "MEAN_MOTION_DDOT": 0
  },
  {
    "OBJECT_NAME": "STARLINK-11576 [DTC]",
    "OBJECT_ID": "2025-031N",
    "EPOCH": "2025-06-21T07:33:03.385728",
    "MEAN_MOTION": 15.70910519,
    "ECCENTRICITY": 0.0002829,
    "INCLINATION": 43.0015,
    "RA_OF_ASC_NODE": 137.0509,
    "ARG_OF_PERICENTER": 254.9623,
    "MEAN_ANOMALY": 105.0932,
    "EPHEMERIS_TYPE": 0,
    "CLASSIFICATION_TYPE": "U",
    "NORAD_CAT_ID": 62993,
    "ELEMENT_SET_NO": 999,
    "REV_AT_EPOCH": 2162,
    "BSTAR": 0.00095813,
    "MEAN_MOTION_DOT": 0.00124736,
    "MEAN_MOTION_DDOT": 0
  },
  {
    "OBJECT_NAME": "STARLINK-32899",
    "OBJECT_ID": "2025-031P",
    "EPOCH": "2025-06-21T10:10:53.021856",
    "MEAN_MOTION": 15.27598364,
    "ECCENTRICITY": 0.0001594,
    "INCLINATION": 43.0006,
    "RA_OF_ASC_NODE": 179.2083,
    "ARG_OF_PERICENTER": 270.1732,
    "MEAN_ANOMALY": 89.8937,
    "EPHEMERIS_TYPE": 0,
    "CLASSIFICATION_TYPE": "U",
    "NORAD_CAT_ID": 62994,
    "ELEMENT_SET_NO": 999,
    "REV_AT_EPOCH": 2113,
    "BSTAR": 0.00052054,
    "MEAN_MOTION_DOT": 0.00014097,
    "MEAN_MOTION_DDOT": 0
  },
  {
    "OBJECT_NAME": "STARLINK-32819",
    "OBJECT_ID": "2025-031Q",
    "EPOCH": "2025-06-21T07:48:35.803296",
    "MEAN_MOTION": 15.27577477,
    "ECCENTRICITY": 0.0001094,
    "INCLINATION": 42.9962,
    "RA_OF_ASC_NODE": 179.3206,
    "ARG_OF_PERICENTER": 276.8997,
    "MEAN_ANOMALY": 83.173,
    "EPHEMERIS_TYPE": 0,
    "CLASSIFICATION_TYPE": "U",
    "NORAD_CAT_ID": 62995,
    "ELEMENT_SET_NO": 999,
    "REV_AT_EPOCH": 2112,
    "BSTAR": 0.00072604,
    "MEAN_MOTION_DOT": 0.00019769,
    "MEAN_MOTION_DDOT": 0
  },
  {
    "OBJECT_NAME": "STARLINK-32703",
    "OBJECT_ID": "2025-031R",
    "EPOCH": "2025-06-21T06:55:07.330656",
    "MEAN_MOTION": 15.27574947,
    "ECCENTRICITY": 0.0002087,
    "INCLINATION": 43.0013,
    "RA_OF_ASC_NODE": 179.9084,
    "ARG_OF_PERICENTER": 284.9039,
    "MEAN_ANOMALY": 75.1582,
    "EPHEMERIS_TYPE": 0,
    "CLASSIFICATION_TYPE": "U",
    "NORAD_CAT_ID": 62996,
    "ELEMENT_SET_NO": 999,
    "REV_AT_EPOCH": 2111,
    "BSTAR": 0.00059112,
    "MEAN_MOTION_DOT": 0.00016037,
    "MEAN_MOTION_DDOT": 0
  },
  {
    "OBJECT_NAME": "STARLINK-32881",
    "OBJECT_ID": "2025-031S",
    "EPOCH": "2025-06-21T09:07:56.618688",
    "MEAN_MOTION": 15.27586872,
    "ECCENTRICITY": 0.0001379,
    "INCLINATION": 43.0011,
    "RA_OF_ASC_NODE": 178.8707,
    "ARG_OF_PERICENTER": 269.1206,
    "MEAN_ANOMALY": 90.9487,
    "EPHEMERIS_TYPE": 0,
    "CLASSIFICATION_TYPE": "U",
    "NORAD_CAT_ID": 62997,
    "ELEMENT_SET_NO": 999,
    "REV_AT_EPOCH": 2113,
    "BSTAR": 0.00044906,
    "MEAN_MOTION_DOT": 0.00012118,
    "MEAN_MOTION_DDOT": 0
  },
  {
    "OBJECT_NAME": "STARLINK-32898",
    "OBJECT_ID": "2025-031T",
    "EPOCH": "2025-06-21T02:03:26.749728",
    "MEAN_MOTION": 15.27598838,
    "ECCENTRICITY": 0.0001699,
    "INCLINATION": 43.0005,
    "RA_OF_ASC_NODE": 180.9653,
    "ARG_OF_PERICENTER": 274.4748,
    "MEAN_ANOMALY": 85.5909,
    "EPHEMERIS_TYPE": 0,
    "CLASSIFICATION_TYPE": "U",
    "NORAD_CAT_ID": 62998,
    "ELEMENT_SET_NO": 999,
    "REV_AT_EPOCH": 2108,
    "BSTAR": 0.00048648,
    "MEAN_MOTION_DOT": 0.00013156,
    "MEAN_MOTION_DDOT": 0
  },
  {
    "OBJECT_NAME": "STARLINK-32658",
    "OBJECT_ID": "2025-031U",
    "EPOCH": "2025-06-21T17:04:16.891968",
    "MEAN_MOTION": 15.27586474,
    "ECCENTRICITY": 8.85e-05,
    "INCLINATION": 42.997,
    "RA_OF_ASC_NODE": 177.054,
    "ARG_OF_PERICENTER": 276.6799,
    "MEAN_ANOMALY": 83.3952,
    "EPHEMERIS_TYPE": 0,
    "CLASSIFICATION_TYPE": "U",
    "NORAD_CAT_ID": 62999,
    "ELEMENT_SET_NO": 999,
    "REV_AT_EPOCH": 2114,
    "BSTAR": 0.00067357,
    "MEAN_MOTION_DOT": 0.00018323,
    "MEAN_MOTION_DDOT": 0
  }
]